KUIPER-00016            
1 63732U 25088J   25271.77347194 -.00003966  00000+0 -49095-3 0  9998
2 63732  51.8972 107.5800 0010398 245.8832 114.1043 14.79909597 23356
KUIPER-00018            
1 63733U 25088K   25271.72325817  .00004524  00000+0  65305-3 0  9993
2 63733  51.9007  96.1080 0011575 276.9064  83.0581 14.77822695 23510
KUIPER-00019            
1 63734U 25088L   25271.71501681  .00003182  00000+0  44902-3 0  9997
2 63734  51.8993  95.3052 0008777 288.5863  71.4146 14.79656262 23526
KUIPER-00020            
1 63735U 25088M   25269.75378922  .00004385  00000+0  60486-3 0  9990
2 63735  51.8990 107.9565 0007326 254.3045 105.7110 14.79858808 23381
KUIPER-00021            
1 63736U 25088N   25271.78151954  .00000104  00000+0  42758-4 0  9999
2 63736  51.8985 100.0303 0005562 264.4288  95.6040 14.79933275 23506
KUIPER-00023            
1 63737U 25088P   25271.78055123  .00004800  00000+0  65672-3 0  9997
2 63737  51.9002 101.4994 0010358 280.3607  79.6188 14.80015369 23782
KUIPER-00024            
1 63738U 25088Q   25271.69777743 -.00040761  00000+0 -54249-2 0  9992
2 63738  51.9030  89.1019 0003524 279.3955  80.6609 14.79345189 24072
KUIPER-00025            
1 63739U 25088R   25271.71666836 -.00008053  00000+0 -10274-2 0  9994
2 63739  51.8982  97.8442 0007810 269.4872  90.5196 14.79950988 23815
