<?xml version="1.0" encoding="UTF-8"?>
<ndm xmlns:xsi="http://www.w3.org/2001/XMLSchema-instance" xsi:noNamespaceSchemaLocation="https://sanaregistry.org/r/ndmxml_unqualified/ndmxml-2.0.0-master-2.0.xsd">
<omm id="CCSDS_OMM_VERS" version="2.0">
<header><CREATION_DATE/><ORIGINATOR/></header><body><segment><metadata><OBJECT_NAME>KUIPER-00016</OBJECT_NAME><OBJECT_ID>2025-088J</OBJECT_ID><CENTER_NAME>EARTH</CENTER_NAME><REF_FRAME>TEME</REF_FRAME><TIME_SYSTEM>UTC</TIME_SYSTEM><MEAN_ELEMENT_THEORY>SGP4</MEAN_ELEMENT_THEORY></metadata><data><meanElements><EPOCH>2025-09-28T18:33:47.975616</EPOCH><MEAN_MOTION>14.79909597</MEAN_MOTION><ECCENTRICITY>.00103988</ECCENTRICITY><INCLINATION>51.8972</INCLINATION><RA_OF_ASC_NODE>107.5800</RA_OF_ASC_NODE><ARG_OF_PERICENTER>245.8832</ARG_OF_PERICENTER><MEAN_ANOMALY>114.1043</MEAN_ANOMALY></meanElements><tleParameters><EPHEMERIS_TYPE>0</EPHEMERIS_TYPE><CLASSIFICATION_TYPE>U</CLASSIFICATION_TYPE><NORAD_CAT_ID>63732</NORAD_CAT_ID><ELEMENT_SET_NO>999</ELEMENT_SET_NO><REV_AT_EPOCH>2335</REV_AT_EPOCH><BSTAR>-.49094528E-3</BSTAR><MEAN_MOTION_DOT>-.3966E-4</MEAN_MOTION_DOT><MEAN_MOTION_DDOT>0</MEAN_MOTION_DDOT></tleParameters></data></segment></body></omm>
<omm id="CCSDS_OMM_VERS" version="2.0">
<header><CREATION_DATE/><ORIGINATOR/></header><body><segment><metadata><OBJECT_NAME>KUIPER-00018</OBJECT_NAME><OBJECT_ID>2025-088K</OBJECT_ID><CENTER_NAME>EARTH</CENTER_NAME><REF_FRAME>TEME</REF_FRAME><TIME_SYSTEM>UTC</TIME_SYSTEM><MEAN_ELEMENT_THEORY>SGP4</MEAN_ELEMENT_THEORY></metadata><data><meanElements><EPOCH>2025-09-28T17:21:29.505888</EPOCH><MEAN_MOTION>14.77822695</MEAN_MOTION><ECCENTRICITY>.00115752</ECCENTRICITY><INCLINATION>51.9007</INCLINATION><RA_OF_ASC_NODE>96.1080</RA_OF_ASC_NODE><ARG_OF_PERICENTER>276.9064</ARG_OF_PERICENTER><MEAN_ANOMALY>83.0581</MEAN_ANOMALY></meanElements><tleParameters><EPHEMERIS_TYPE>0</EPHEMERIS_TYPE><CLASSIFICATION_TYPE>U</CLASSIFICATION_TYPE><NORAD_CAT_ID>63733</NORAD_CAT_ID><ELEMENT_SET_NO>999</ELEMENT_SET_NO><REV_AT_EPOCH>2351</REV_AT_EPOCH><BSTAR>.65305317E-3</BSTAR><MEAN_MOTION_DOT>.4524E-4</MEAN_MOTION_DOT><MEAN_MOTION_DDOT>0</MEAN_MOTION_DDOT></tleParameters></data></segment></body></omm>
<omm id="CCSDS_OMM_VERS" version="2.0">
<header><CREATION_DATE/><ORIGINATOR/></header><body><segment><metadata><OBJECT_NAME>KUIPER-00019</OBJECT_NAME><OBJECT_ID>2025-088L</OBJECT_ID><CENTER_NAME>EARTH</CENTER_NAME><REF_FRAME>TEME</REF_FRAME><TIME_SYSTEM>UTC</TIME_SYSTEM><MEAN_ELEMENT_THEORY>SGP4</MEAN_ELEMENT_THEORY></metadata><data><meanElements><EPOCH>2025-09-28T17:09:37.452384</EPOCH><MEAN_MOTION>14.79656262</MEAN_MOTION><ECCENTRICITY>.00087775</ECCENTRICITY><INCLINATION>51.8993</INCLINATION><RA_OF_ASC_NODE>95.3052</RA_OF_ASC_NODE><ARG_OF_PERICENTER>288.5863</ARG_OF_PERICENTER><MEAN_ANOMALY>71.4146</MEAN_ANOMALY></meanElements><tleParameters><EPHEMERIS_TYPE>0</EPHEMERIS_TYPE><CLASSIFICATION_TYPE>U</CLASSIFICATION_TYPE><NORAD_CAT_ID>63734</NORAD_CAT_ID><ELEMENT_SET_NO>999</ELEMENT_SET_NO><REV_AT_EPOCH>2352</REV_AT_EPOCH><BSTAR>.44902126E-3</BSTAR><MEAN_MOTION_DOT>.3182E-4</MEAN_MOTION_DOT><MEAN_MOTION_DDOT>0</MEAN_MOTION_DDOT></tleParameters></data></segment></body></omm>
<omm id="CCSDS_OMM_VERS" version="2.0">
<header><CREATION_DATE/><ORIGINATOR/></header><body><segment><metadata><OBJECT_NAME>KUIPER-00020</OBJECT_NAME><OBJECT_ID>2025-088M</OBJECT_ID><CENTER_NAME>EARTH</CENTER_NAME><REF_FRAME>TEME</REF_FRAME><TIME_SYSTEM>UTC</TIME_SYSTEM><MEAN_ELEMENT_THEORY>SGP4</MEAN_ELEMENT_THEORY></metadata><data><meanElements><EPOCH>2025-09-26T18:05:27.388608</EPOCH><MEAN_MOTION>14.79858808</MEAN_MOTION><ECCENTRICITY>.00073266</ECCENTRICITY><INCLINATION>51.8990</INCLINATION><RA_OF_ASC_NODE>107.9565</RA_OF_ASC_NODE><ARG_OF_PERICENTER>254.3045</ARG_OF_PERICENTER><MEAN_ANOMALY>105.7110</MEAN_ANOMALY></meanElements><tleParameters><EPHEMERIS_TYPE>0</EPHEMERIS_TYPE><CLASSIFICATION_TYPE>U</CLASSIFICATION_TYPE><NORAD_CAT_ID>63735</NORAD_CAT_ID><ELEMENT_SET_NO>999</ELEMENT_SET_NO><REV_AT_EPOCH>2338</REV_AT_EPOCH><BSTAR>.60486268E-3</BSTAR><MEAN_MOTION_DOT>.4385E-4</MEAN_MOTION_DOT><MEAN_MOTION_DDOT>0</MEAN_MOTION_DDOT></tleParameters></data></segment></body></omm>
<omm id="CCSDS_OMM_VERS" version="2.0">
<header><CREATION_DATE/><ORIGINATOR/></header><body><segment><metadata><OBJECT_NAME>KUIPER-00021</OBJECT_NAME><OBJECT_ID>2025-088N</OBJECT_ID><CENTER_NAME>EARTH</CENTER_NAME><REF_FRAME>TEME</REF_FRAME><TIME_SYSTEM>UTC</TIME_SYSTEM><MEAN_ELEMENT_THEORY>SGP4</MEAN_ELEMENT_THEORY></metadata><data><meanElements><EPOCH>2025-09-28T18:45:23.288256</EPOCH><MEAN_MOTION>14.79933275</MEAN_MOTION><ECCENTRICITY>.00055626</ECCENTRICITY><INCLINATION>51.8985</INCLINATION><RA_OF_ASC_NODE>100.0303</RA_OF_ASC_NODE><ARG_OF_PERICENTER>264.4288</ARG_OF_PERICENTER><MEAN_ANOMALY>95.6040</MEAN_ANOMALY></meanElements><tleParameters><EPHEMERIS_TYPE>0</EPHEMERIS_TYPE><CLASSIFICATION_TYPE>U</CLASSIFICATION_TYPE><NORAD_CAT_ID>63736</NORAD_CAT_ID><ELEMENT_SET_NO>999</ELEMENT_SET_NO><REV_AT_EPOCH>2350</REV_AT_EPOCH><BSTAR>.42758359E-4</BSTAR><MEAN_MOTION_DOT>.104E-5</MEAN_MOTION_DOT><MEAN_MOTION_DDOT>0</MEAN_MOTION_DDOT></tleParameters></data></segment></body></omm>
<omm id="CCSDS_OMM_VERS" version="2.0">
<header><CREATION_DATE/><ORIGINATOR/></header><body><segment><metadata><OBJECT_NAME>KUIPER-00023</OBJECT_NAME><OBJECT_ID>2025-088P</OBJECT_ID><CENTER_NAME>EARTH</CENTER_NAME><REF_FRAME>TEME</REF_FRAME><TIME_SYSTEM>UTC</TIME_SYSTEM><MEAN_ELEMENT_THEORY>SGP4</MEAN_ELEMENT_THEORY></metadata><data><meanElements><EPOCH>2025-09-28T18:43:59.626272</EPOCH><MEAN_MOTION>14.80015369</MEAN_MOTION><ECCENTRICITY>.00103585</ECCENTRICITY><INCLINATION>51.9002</INCLINATION><RA_OF_ASC_NODE>101.4994</RA_OF_ASC_NODE><ARG_OF_PERICENTER>280.3607</ARG_OF_PERICENTER><MEAN_ANOMALY>79.6188</MEAN_ANOMALY></meanElements><tleParameters><EPHEMERIS_TYPE>0</EPHEMERIS_TYPE><CLASSIFICATION_TYPE>U</CLASSIFICATION_TYPE><NORAD_CAT_ID>63737</NORAD_CAT_ID><ELEMENT_SET_NO>999</ELEMENT_SET_NO><REV_AT_EPOCH>2378</REV_AT_EPOCH><BSTAR>.65672436E-3</BSTAR><MEAN_MOTION_DOT>.48E-4</MEAN_MOTION_DOT><MEAN_MOTION_DDOT>0</MEAN_MOTION_DDOT></tleParameters></data></segment></body></omm>
<omm id="CCSDS_OMM_VERS" version="2.0">
<header><CREATION_DATE/><ORIGINATOR/></header><body><segment><metadata><OBJECT_NAME>KUIPER-00024</OBJECT_NAME><OBJECT_ID>2025-088Q</OBJECT_ID><CENTER_NAME>EARTH</CENTER_NAME><REF_FRAME>TEME</REF_FRAME><TIME_SYSTEM>UTC</TIME_SYSTEM><MEAN_ELEMENT_THEORY>SGP4</MEAN_ELEMENT_THEORY></metadata><data><meanElements><EPOCH>2025-09-28T16:44:47.969952</EPOCH><MEAN_MOTION>14.79345189</MEAN_MOTION><ECCENTRICITY>.00035242</ECCENTRICITY><INCLINATION>51.9030</INCLINATION><RA_OF_ASC_NODE>89.1019</RA_OF_ASC_NODE><ARG_OF_PERICENTER>279.3955</ARG_OF_PERICENTER><MEAN_ANOMALY>80.6609</MEAN_ANOMALY></meanElements><tleParameters><EPHEMERIS_TYPE>0</EPHEMERIS_TYPE><CLASSIFICATION_TYPE>U</CLASSIFICATION_TYPE><NORAD_CAT_ID>63738</NORAD_CAT_ID><ELEMENT_SET_NO>999</ELEMENT_SET_NO><REV_AT_EPOCH>2407</REV_AT_EPOCH><BSTAR>-.54249111E-2</BSTAR><MEAN_MOTION_DOT>-.40761E-3</MEAN_MOTION_DOT><MEAN_MOTION_DDOT>0</MEAN_MOTION_DDOT></tleParameters></data></segment></body></omm>
<omm id="CCSDS_OMM_VERS" version="2.0">
<header><CREATION_DATE/><ORIGINATOR/></header><body><segment><metadata><OBJECT_NAME>KUIPER-00025</OBJECT_NAME><OBJECT_ID>2025-088R</OBJECT_ID><CENTER_NAME>EARTH</CENTER_NAME><REF_FRAME>TEME</REF_FRAME><TIME_SYSTEM>UTC</TIME_SYSTEM><MEAN_ELEMENT_THEORY>SGP4</MEAN_ELEMENT_THEORY></metadata><data><meanElements><EPOCH>2025-09-28T17:12:00.146304</EPOCH><MEAN_MOTION>14.79950988</MEAN_MOTION><ECCENTRICITY>.00078106</ECCENTRICITY><INCLINATION>51.8982</INCLINATION><RA_OF_ASC_NODE>97.8442</RA_OF_ASC_NODE><ARG_OF_PERICENTER>269.4872</ARG_OF_PERICENTER><MEAN_ANOMALY>90.5196</MEAN_ANOMALY></meanElements><tleParameters><EPHEMERIS_TYPE>0</EPHEMERIS_TYPE><CLASSIFICATION_TYPE>U</CLASSIFICATION_TYPE><NORAD_CAT_ID>63739</NORAD_CAT_ID><ELEMENT_SET_NO>999</ELEMENT_SET_NO><REV_AT_EPOCH>2381</REV_AT_EPOCH><BSTAR>-.1027413E-2</BSTAR><MEAN_MOTION_DOT>-.8053E-4</MEAN_MOTION_DOT><MEAN_MOTION_DDOT>0</MEAN_MOTION_DDOT></tleParameters></data></segment></body></omm>

</ndm>
